[{"OBJECT_NAME":"CONNECTA IOT-5","OBJECT_ID":"2025-009CY","EPOCH":"2026-03-09T17:09:47.996640","MEAN_MOTION":14.94496249,"ECCENTRICITY":0.00032838,"INCLINATION":97.7071,"RA_OF_ASC_NODE":149.1668,"ARG_OF_PERICENTER":55.944,"MEAN_ANOMALY":304.2092,"EPHEMERIS_TYPE":0,"CLASSIFICATION_TYPE":"U","NORAD_CAT_ID":62703,"ELEMENT_SET_NO":999,"REV_AT_EPOCH":6251,"BSTAR":0.00017598719,"MEAN_MOTION_DOT":1.843e-5,"MEAN_MOTION_DDOT":0},{"OBJECT_NAME":"PSLV R\/B","OBJECT_ID":"2007-001E","EPOCH":"2026-03-09T22:10:17.317056","MEAN_MOTION":14.97920804,"ECCENTRICITY":0.00208593,"INCLINATION":98.0304,"RA_OF_ASC_NODE":98.4358,"ARG_OF_PERICENTER":74.2404,"MEAN_ANOMALY":286.1116,"EPHEMERIS_TYPE":0,"CLASSIFICATION_TYPE":"U","NORAD_CAT_ID":29713,"ELEMENT_SET_NO":999,"REV_AT_EPOCH":3805,"BSTAR":0.00025269605,"MEAN_MOTION_DOT":2.927e-5,"MEAN_MOTION_DDOT":0}]
